CCSDS_OMM_VERS = 2.0
CREATION_DATE  = 
ORIGINATOR     = 

OBJECT_NAME    = ISS (ZARYA)
OBJECT_ID      = 1998-067A
CENTER_NAME    = EARTH
REF_FRAME      = TEME
TIME_SYSTEM    = UTC
MEAN_ELEMENT_THEORY = SGP/SGP4

EPOCH          = 2025-11-25T10:44:58.483104
MEAN_MOTION    = 15.49072731
ECCENTRICITY   = .0003851
INCLINATION    = 51.6313
RA_OF_ASC_NODE = 228.0726
ARG_OF_PERICENTER = 166.4062
MEAN_ANOMALY   = 193.7031

EPHEMERIS_TYPE = 0
CLASSIFICATION_TYPE = U
NORAD_CAT_ID   = 25544
ELEMENT_SET_NO = 999
REV_AT_EPOCH   = 54017
BSTAR          = .25508E-3
MEAN_MOTION_DOT = .13664E-3
MEAN_MOTION_DDOT = 0

CCSDS_OMM_VERS = 2.0
CREATION_DATE  = 
ORIGINATOR     = 

OBJECT_NAME    = CSS (TIANHE)
OBJECT_ID      = 2021-035A
CENTER_NAME    = EARTH
REF_FRAME      = TEME
TIME_SYSTEM    = UTC
MEAN_ELEMENT_THEORY = SGP/SGP4

EPOCH          = 2025-11-25T19:10:46.559136
MEAN_MOTION    = 15.58262718
ECCENTRICITY   = .0010763
INCLINATION    = 41.4666
RA_OF_ASC_NODE = 119.4772
ARG_OF_PERICENTER = 270.0332
MEAN_ANOMALY   = 89.9273

EPHEMERIS_TYPE = 0
CLASSIFICATION_TYPE = U
NORAD_CAT_ID   = 48274
ELEMENT_SET_NO = 999
REV_AT_EPOCH   = 26138
BSTAR          = .35869E-3
MEAN_MOTION_DOT = .27762E-3
MEAN_MOTION_DDOT = 0

CCSDS_OMM_VERS = 2.0
CREATION_DATE  = 
ORIGINATOR     = 

OBJECT_NAME    = ISS (NAUKA)
OBJECT_ID      = 2021-066A
CENTER_NAME    = EARTH
REF_FRAME      = TEME
TIME_SYSTEM    = UTC
MEAN_ELEMENT_THEORY = SGP/SGP4

EPOCH          = 2025-11-25T04:33:23.066784
MEAN_MOTION    = 15.49065492
ECCENTRICITY   = .00038559
INCLINATION    = 51.6313
RA_OF_ASC_NODE = 229.3494
ARG_OF_PERICENTER = 165.5942
MEAN_ANOMALY   = 194.5157

EPHEMERIS_TYPE = 0
CLASSIFICATION_TYPE = U
NORAD_CAT_ID   = 49044
ELEMENT_SET_NO = 999
REV_AT_EPOCH   = 23044
BSTAR          = .26139988E-3
MEAN_MOTION_DOT = .14011E-3
MEAN_MOTION_DDOT = 0

CCSDS_OMM_VERS = 2.0
CREATION_DATE  = 
ORIGINATOR     = 

OBJECT_NAME    = FREGAT DEB
OBJECT_ID      = 2011-037PF
CENTER_NAME    = EARTH
REF_FRAME      = TEME
TIME_SYSTEM    = UTC
MEAN_ELEMENT_THEORY = SGP/SGP4

EPOCH          = 2025-11-25T03:54:38.759040
MEAN_MOTION    = 12.34248240
ECCENTRICITY   = .08729488
INCLINATION    = 51.6166
RA_OF_ASC_NODE = 251.4106
ARG_OF_PERICENTER = 185.8570
MEAN_ANOMALY   = 173.1501

EPHEMERIS_TYPE = 0
CLASSIFICATION_TYPE = U
NORAD_CAT_ID   = 49271
ELEMENT_SET_NO = 999
REV_AT_EPOCH   = 19976
BSTAR          = .21080343E-1
MEAN_MOTION_DOT = .9615E-4
MEAN_MOTION_DDOT = 0

CCSDS_OMM_VERS = 2.0
CREATION_DATE  = 
ORIGINATOR     = 

OBJECT_NAME    = CSS (WENTIAN)
OBJECT_ID      = 2022-085A
CENTER_NAME    = EARTH
REF_FRAME      = TEME
TIME_SYSTEM    = UTC
MEAN_ELEMENT_THEORY = SGP/SGP4

EPOCH          = 2025-11-25T03:47:51.680256
MEAN_MOTION    = 15.58219503
ECCENTRICITY   = .00107787
INCLINATION    = 41.4665
RA_OF_ASC_NODE = 123.3621
ARG_OF_PERICENTER = 265.3855
MEAN_ANOMALY   = 94.5752

EPHEMERIS_TYPE = 0
CLASSIFICATION_TYPE = U
NORAD_CAT_ID   = 53239
ELEMENT_SET_NO = 999
REV_AT_EPOCH   = 17384
BSTAR          = .28567111E-3
MEAN_MOTION_DOT = .2199E-3
MEAN_MOTION_DDOT = 0

CCSDS_OMM_VERS = 2.0
CREATION_DATE  = 
ORIGINATOR     = 

OBJECT_NAME    = CSS (MENGTIAN)
OBJECT_ID      = 2022-143A
CENTER_NAME    = EARTH
REF_FRAME      = TEME
TIME_SYSTEM    = UTC
MEAN_ELEMENT_THEORY = SGP/SGP4

EPOCH          = 2025-11-25T03:47:51.680256
MEAN_MOTION    = 15.58219503
ECCENTRICITY   = .00107787
INCLINATION    = 41.4665
RA_OF_ASC_NODE = 123.3621
ARG_OF_PERICENTER = 265.3855
MEAN_ANOMALY   = 94.5752

EPHEMERIS_TYPE = 0
CLASSIFICATION_TYPE = U
NORAD_CAT_ID   = 54216
ELEMENT_SET_NO = 999
REV_AT_EPOCH   = 15864
BSTAR          = .28567111E-3
MEAN_MOTION_DOT = .2199E-3
MEAN_MOTION_DDOT = 0

CCSDS_OMM_VERS = 2.0
CREATION_DATE  = 
ORIGINATOR     = 

OBJECT_NAME    = SOYUZ-MS 27
OBJECT_ID      = 2025-072A
CENTER_NAME    = EARTH
REF_FRAME      = TEME
TIME_SYSTEM    = UTC
MEAN_ELEMENT_THEORY = SGP/SGP4

EPOCH          = 2025-11-25T04:33:23.066784
MEAN_MOTION    = 15.49065492
ECCENTRICITY   = .00038559
INCLINATION    = 51.6313
RA_OF_ASC_NODE = 229.3494
ARG_OF_PERICENTER = 165.5942
MEAN_ANOMALY   = 194.5157

EPHEMERIS_TYPE = 0
CLASSIFICATION_TYPE = U
NORAD_CAT_ID   = 63520
ELEMENT_SET_NO = 999
REV_AT_EPOCH   = 2020
BSTAR          = .26139988E-3
MEAN_MOTION_DOT = .14011E-3
MEAN_MOTION_DDOT = 0

CCSDS_OMM_VERS = 2.0
CREATION_DATE  = 
ORIGINATOR     = 

OBJECT_NAME    = SHENZHOU-20 (SZ-20)
OBJECT_ID      = 2025-082A
CENTER_NAME    = EARTH
REF_FRAME      = TEME
TIME_SYSTEM    = UTC
MEAN_ELEMENT_THEORY = SGP/SGP4

EPOCH          = 2025-11-25T03:47:51.680256
MEAN_MOTION    = 15.58219503
ECCENTRICITY   = .00107787
INCLINATION    = 41.4665
RA_OF_ASC_NODE = 123.3621
ARG_OF_PERICENTER = 265.3855
MEAN_ANOMALY   = 94.5752

EPHEMERIS_TYPE = 0
CLASSIFICATION_TYPE = U
NORAD_CAT_ID   = 63632
ELEMENT_SET_NO = 999
REV_AT_EPOCH   = 25530
BSTAR          = .28567111E-3
MEAN_MOTION_DOT = .2199E-3
MEAN_MOTION_DDOT = 0

CCSDS_OMM_VERS = 2.0
CREATION_DATE  = 
ORIGINATOR     = 

OBJECT_NAME    = PROGRESS-MS 31
OBJECT_ID      = 2025-146A
CENTER_NAME    = EARTH
REF_FRAME      = TEME
TIME_SYSTEM    = UTC
MEAN_ELEMENT_THEORY = SGP/SGP4

EPOCH          = 2025-11-25T04:33:23.066784
MEAN_MOTION    = 15.49065492
ECCENTRICITY   = .00038559
INCLINATION    = 51.6313
RA_OF_ASC_NODE = 229.3494
ARG_OF_PERICENTER = 165.5942
MEAN_ANOMALY   = 194.5157

EPHEMERIS_TYPE = 0
CLASSIFICATION_TYPE = U
NORAD_CAT_ID   = 64751
ELEMENT_SET_NO = 999
REV_AT_EPOCH   = 675
BSTAR          = .26139988E-3
MEAN_MOTION_DOT = .14011E-3
MEAN_MOTION_DDOT = 0

CCSDS_OMM_VERS = 2.0
CREATION_DATE  = 
ORIGINATOR     = 

OBJECT_NAME    = TIANZHOU-9
OBJECT_ID      = 2025-149A
CENTER_NAME    = EARTH
REF_FRAME      = TEME
TIME_SYSTEM    = UTC
MEAN_ELEMENT_THEORY = SGP/SGP4

EPOCH          = 2025-11-25T03:47:51.680256
MEAN_MOTION    = 15.58219503
ECCENTRICITY   = .00107787
INCLINATION    = 41.4665
RA_OF_ASC_NODE = 123.3621
ARG_OF_PERICENTER = 265.3855
MEAN_ANOMALY   = 94.5752

EPHEMERIS_TYPE = 0
CLASSIFICATION_TYPE = U
NORAD_CAT_ID   = 64786
ELEMENT_SET_NO = 999
REV_AT_EPOCH   = 25530
BSTAR          = .28567111E-3
MEAN_MOTION_DOT = .2199E-3
MEAN_MOTION_DDOT = 0

CCSDS_OMM_VERS = 2.0
CREATION_DATE  = 
ORIGINATOR     = 

OBJECT_NAME    = CREW DRAGON 11
OBJECT_ID      = 2025-166A
CENTER_NAME    = EARTH
REF_FRAME      = TEME
TIME_SYSTEM    = UTC
MEAN_ELEMENT_THEORY = SGP/SGP4

EPOCH          = 2025-11-25T04:33:23.066784
MEAN_MOTION    = 15.49065492
ECCENTRICITY   = .00038559
INCLINATION    = 51.6313
RA_OF_ASC_NODE = 229.3494
ARG_OF_PERICENTER = 165.5942
MEAN_ANOMALY   = 194.5157

EPHEMERIS_TYPE = 0
CLASSIFICATION_TYPE = U
NORAD_CAT_ID   = 65077
ELEMENT_SET_NO = 999
REV_AT_EPOCH   = 214
BSTAR          = .26139988E-3
MEAN_MOTION_DOT = .14011E-3
MEAN_MOTION_DDOT = 0

CCSDS_OMM_VERS = 2.0
CREATION_DATE  = 
ORIGINATOR     = 

OBJECT_NAME    = DRAGON CRS-33
OBJECT_ID      = 2025-186A
CENTER_NAME    = EARTH
REF_FRAME      = TEME
TIME_SYSTEM    = UTC
MEAN_ELEMENT_THEORY = SGP/SGP4

EPOCH          = 2025-11-25T04:33:23.066784
MEAN_MOTION    = 15.49065492
ECCENTRICITY   = .00038559
INCLINATION    = 51.6313
RA_OF_ASC_NODE = 229.3494
ARG_OF_PERICENTER = 165.5942
MEAN_ANOMALY   = 194.5157

EPHEMERIS_TYPE = 0
CLASSIFICATION_TYPE = U
NORAD_CAT_ID   = 65304
ELEMENT_SET_NO = 999
REV_AT_EPOCH   = 11
BSTAR          = .26139988E-3
MEAN_MOTION_DOT = .14011E-3
MEAN_MOTION_DDOT = 0

