ISS (ZARYA)             
1 25544U 98067A   25329.44789911  .00013664  00000+0  25508-3 0  9996
2 25544  51.6313 228.0726 0003851 166.4062 193.7031 15.49072731540170
CSS (TIANHE)            
1 48274U 21035A   25329.79914999  .00027762  00000+0  35869-3 0  9991
2 48274  41.4666 119.4772 0010763 270.0332  89.9273 15.58262718261382
ISS (NAUKA)             
1 49044U 21066A   25329.18985031  .00014011  00000+0  26140-3 0  9994
2 49044  51.6313 229.3494 0003855 165.5942 194.5157 15.49065492230448
FREGAT DEB              
1 49271U 11037PF  25329.16294860  .00009615  00000+0  21080-1 0  9994
2 49271  51.6166 251.4106 0872948 185.8570 173.1501 12.34248240199761
CSS (WENTIAN)           
1 53239U 22085A   25329.15823704  .00021990  00000+0  28567-3 0  9991
2 53239  41.4665 123.3621 0010778 265.3855  94.5752 15.58219503173849
CSS (MENGTIAN)          
1 54216U 22143A   25329.15823704  .00021990  00000+0  28567-3 0  9992
2 54216  41.4665 123.3621 0010778 265.3855  94.5752 15.58219503158646
SOYUZ-MS 27             
1 63520U 25072A   25329.18985031  .00014011  00000+0  26140-3 0  9990
2 63520  51.6313 229.3494 0003855 165.5942 194.5157 15.49065492 20204
SHENZHOU-20 (SZ-20)     
1 63632U 25082A   25329.15823704  .00021990  00000+0  28567-3 0  9999
2 63632  41.4665 123.3621 0010778 265.3855  94.5752 15.58219503255309
PROGRESS-MS 31          
1 64751U 25146A   25329.18985031  .00014011  00000+0  26140-3 0  9999
2 64751  51.6313 229.3494 0003855 165.5942 194.5157 15.49065492  6755
TIANZHOU-9              
1 64786U 25149A   25329.15823704  .00021990  00000+0  28567-3 0  9994
2 64786  41.4665 123.3621 0010778 265.3855  94.5752 15.58219503255300
CREW DRAGON 11          
1 65077U 25166A   25329.18985031  .00014011  00000+0  26140-3 0  9993
2 65077  51.6313 229.3494 0003855 165.5942 194.5157 15.49065492  2146
DRAGON CRS-33           
1 65304U 25186A   25329.18985031  .00014011  00000+0  26140-3 0  9998
2 65304  51.6313 229.3494 0003855 165.5942 194.5157 15.49065492   114
